{
  "type": "FeatureCollection",
  "features": [
    {
      "type": "Feature",
      "properties": {
        "norad_id": 41026,
        "name": "YAOGAN-28",
        "group": "resource",
        "lat": 32.22722523762986,
        "lon": 126.19517932717581,
        "alt_km": 488.0363627260376,
        "timestamp": "2025-12-19T04:59:47.957874+00:00",
        "meta_object_name": "YAOGAN-28",
        "meta_object_id": "2015-064A",
        "meta_epoch": "2025-12-18T22:33:11.026080",
        "meta_mean_motion": 15.24451446,
        "meta_eccentricity": 0.00126035,
        "meta_inclination": 97.2808,
        "meta_ra_of_asc_node": 130.5572,
        "meta_arg_of_pericenter": 106.2589,
        "meta_mean_anomaly": 254.0037,
        "meta_ephemeris_type": 0,
        "meta_classification_type": "U",
        "meta_norad_cat_id": 41026,
        "meta_element_set_no": 999,
        "meta_rev_at_epoch": 56319,
        "meta_bstar": 0.00027336116,
        "meta_mean_motion_dot": 6.656e-05,
        "meta_mean_motion_ddot": 0,
        "tle_line1": "1 41026U 15064A   25352.93971095  .00006656  00000+0  27336-3 0  9995",
        "tle_line2": "2 41026  97.2808 130.5572 0012603 106.2589 254.0037 15.24451446563196"
      },
      "geometry": {
        "type": "Point",
        "coordinates": [
          126.19517932717581,
          32.22722523762986
        ]
      }
    },
    {
      "type": "Feature",
      "properties": {
        "norad_id": 41038,
        "name": "YAOGAN-29",
        "group": "resource",
        "lat": -63.022792857009335,
        "lon": -179.68249234519317,
        "alt_km": 627.2688782152709,
        "timestamp": "2025-12-19T04:59:47.957885+00:00",
        "meta_object_name": "YAOGAN-29",
        "meta_object_id": "2015-069A",
        "meta_epoch": "2025-12-18T23:02:26.853792",
        "meta_mean_motion": 14.82888945,
        "meta_eccentricity": 3.922e-05,
        "meta_inclination": 98.0215,
        "meta_ra_of_asc_node": 16.152,
        "meta_arg_of_pericenter": 187.363,
        "meta_mean_anomaly": 172.7578,
        "meta_ephemeris_type": 0,
        "meta_classification_type": "U",
        "meta_norad_cat_id": 41038,
        "meta_element_set_no": 999,
        "meta_rev_at_epoch": 54391,
        "meta_bstar": 6.4072271e-05,
        "meta_mean_motion_dot": 4.65e-06,
        "meta_mean_motion_ddot": 0,
        "tle_line1": "1 41038U 15069A   25352.96003303  .00000465  00000+0  64072-4 0  9995",
        "tle_line2": "2 41038  98.0215  16.1520 0000392 187.3630 172.7578 14.82888945543916"
      },
      "geometry": {
        "type": "Point",
        "coordinates": [
          -179.68249234519317,
          -63.022792857009335
        ]
      }
    },
    {
      "type": "Feature",
      "properties": {
        "norad_id": 41167,
        "name": "KENT RIDGE 1",
        "group": "resource",
        "lat": 13.14726153250658,
        "lon": -135.9651065173079,
        "alt_km": 501.65146033628207,
        "timestamp": "2025-12-19T04:59:47.957895+00:00",
        "meta_object_name": "KENT RIDGE 1",
        "meta_object_id": "2015-077B",
        "meta_epoch": "2025-12-18T16:08:28.827168",
        "meta_mean_motion": 15.21681708,
        "meta_eccentricity": 0.00085172,
        "meta_inclination": 14.978,
        "meta_ra_of_asc_node": 167.1166,
        "meta_arg_of_pericenter": 214.7509,
        "meta_mean_anomaly": 145.2257,
        "meta_ephemeris_type": 0,
        "meta_classification_type": "U",
        "meta_norad_cat_id": 41167,
        "meta_element_set_no": 999,
        "meta_rev_at_epoch": 55354,
        "meta_bstar": 0.00013855857,
        "meta_mean_motion_dot": 3.984e-05,
        "meta_mean_motion_ddot": 0,
        "tle_line1": "1 41167U 15077B   25352.67255587  .00003984  00000+0  13856-3 0  9990",
        "tle_line2": "2 41167  14.9780 167.1166 0008517 214.7509 145.2257 15.21681708553544"
      },
      "geometry": {
        "type": "Point",
        "coordinates": [
          -135.9651065173079,
          13.14726153250658
        ]
      }
    },
    {
      "type": "Feature",
      "properties": {
        "norad_id": 41194,
        "name": "GAOFEN-4",
        "group": "resource",
        "lat": -0.04955426776037041,
        "lon": -91.25650203277343,
        "alt_km": 35786.36306496424,
        "timestamp": "2025-12-19T04:59:47.957909+00:00",
        "meta_object_name": "GAOFEN-4",
        "meta_object_id": "2015-083A",
        "meta_epoch": "2025-12-18T22:21:32.534784",
        "meta_mean_motion": 1.00273539,
        "meta_eccentricity": 0.00029294,
        "meta_inclination": 0.186,
        "meta_ra_of_asc_node": 81.7696,
        "meta_arg_of_pericenter": 93.5491,
        "meta_mean_anomaly": 353.5637,
        "meta_ephemeris_type": 0,
        "meta_classification_type": "U",
        "meta_norad_cat_id": 41194,
        "meta_element_set_no": 999,
        "meta_rev_at_epoch": 3672,
        "meta_bstar": 0,
        "meta_mean_motion_dot": -3.1e-06,
        "meta_mean_motion_ddot": 0,
        "tle_line1": "1 41194U 15083A   25352.93162656 -.00000310  00000+0  00000+0 0  9994",
        "tle_line2": "2 41194   0.1860  81.7696 0002929  93.5491 353.5637  1.00273539 36726"
      },
      "geometry": {
        "type": "Point",
        "coordinates": [
          -91.25650203277343,
          -0.04955426776037041
        ]
      }
    },
    {
      "type": "Feature",
      "properties": {
        "norad_id": 41240,
        "name": "JASON-3",
        "group": "resource",
        "lat": 46.65988639824167,
        "lon": 172.33626535847503,
        "alt_km": 1310.2681298722018,
        "timestamp": "2025-12-19T04:59:47.957920+00:00",
        "meta_object_name": "JASON-3",
        "meta_object_id": "2016-002A",
        "meta_epoch": "2025-12-18T23:07:52.952448",
        "meta_mean_motion": 12.8762688,
        "meta_eccentricity": 0.00072036,
        "meta_inclination": 66.0397,
        "meta_ra_of_asc_node": 144.7386,
        "meta_arg_of_pericenter": 271.1791,
        "meta_mean_anomaly": 88.8402,
        "meta_ephemeris_type": 0,
        "meta_classification_type": "U",
        "meta_norad_cat_id": 41240,
        "meta_element_set_no": 999,
        "meta_rev_at_epoch": 46404,
        "meta_bstar": 7.8453299e-05,
        "meta_mean_motion_dot": -4.2e-07,
        "meta_mean_motion_ddot": 0,
        "tle_line1": "1 41240U 16002A   25352.96380732 -.00000042  00000+0  78453-4 0  9992",
        "tle_line2": "2 41240  66.0397 144.7386 0007203 271.1791  88.8402 12.87626880464043"
      },
      "geometry": {
        "type": "Point",
        "coordinates": [
          172.33626535847503,
          46.65988639824167
        ]
      }
    },
    {
      "type": "Feature",
      "properties": {
        "norad_id": 41335,
        "name": "SENTINEL-3A",
        "group": "resource",
        "lat": 75.0747216694928,
        "lon": 23.394047856393513,
        "alt_km": 794.8744449025871,
        "timestamp": "2025-12-19T04:59:47.957931+00:00",
        "meta_object_name": "SENTINEL-3A",
        "meta_object_id": "2016-011A",
        "meta_epoch": "2025-12-18T21:54:03.611520",
        "meta_mean_motion": 14.26733008,
        "meta_eccentricity": 9.144e-05,
        "meta_inclination": 98.6307,
        "meta_ra_of_asc_node": 57.8388,
        "meta_arg_of_pericenter": 93.1397,
        "meta_mean_anomaly": 266.9888,
        "meta_ephemeris_type": 0,
        "meta_classification_type": "U",
        "meta_norad_cat_id": 41335,
        "meta_element_set_no": 999,
        "meta_rev_at_epoch": 51235,
        "meta_bstar": 6.3750474e-05,
        "meta_mean_motion_dot": 1.11e-06,
        "meta_mean_motion_ddot": 0,
        "tle_line1": "1 41335U 16011A   25352.91254180  .00000111  00000+0  63750-4 0  9999",
        "tle_line2": "2 41335  98.6307  57.8388 0000914  93.1397 266.9888 14.26733008512353"
      },
      "geometry": {
        "type": "Point",
        "coordinates": [
          23.394047856393513,
          75.0747216694928
        ]
      }
    },
    {
      "type": "Feature",
      "properties": {
        "norad_id": 41556,
        "name": "ZIYUAN 3-02 (ZY 3-02)",
        "group": "resource",
        "lat": -48.32359759611754,
        "lon": -121.13141702624671,
        "alt_km": 501.8046394558687,
        "timestamp": "2025-12-19T04:59:47.957941+00:00",
        "meta_object_name": "ZIYUAN 3-02 (ZY 3-02)",
        "meta_object_id": "2016-033A",
        "meta_epoch": "2025-12-18T23:15:26.150688",
        "meta_mean_motion": 15.21141551,
        "meta_eccentricity": 0.00109475,
        "meta_inclination": 97.4044,
        "meta_ra_of_asc_node": 67.0334,
        "meta_arg_of_pericenter": 222.8821,
        "meta_mean_anomaly": 137.1562,
        "meta_ephemeris_type": 0,
        "meta_classification_type": "U",
        "meta_norad_cat_id": 41556,
        "meta_element_set_no": 999,
        "meta_rev_at_epoch": 53058,
        "meta_bstar": 0.00027295111,
        "meta_mean_motion_dot": 6.018e-05,
        "meta_mean_motion_ddot": 0,
        "tle_line1": "1 41556U 16033A   25352.96905267  .00006018  00000+0  27295-3 0  9997",
        "tle_line2": "2 41556  97.4044  67.0334 0010947 222.8821 137.1562 15.21141551530582"
      },
      "geometry": {
        "type": "Point",
        "coordinates": [
          -121.13141702624671,
          -48.32359759611754
        ]
      }
    }
  ]
}